     2.100          NAVIGATION                              RINEX VERSION / TYPE
fic2rin                                 03/21/2012 00:13:00 PGM / RUN BY / DATE
                                                            END OF HEADER
 1 12  3 20  4  0  0.0  .235617160797D-03  .670752342558D-11  .000000000000D+00
     .380000000000D+02  .190625000000D+02  .425196282560D-08 -.584292263329D+00
     .873580574989D-06  .564677640796D-03  .115465372801D-04  .515366548157D+04
     .187200000000D+06  .931322574615D-08  .190005380087D-01 -.149011611938D-07
     .960667079594D+00  .156968750000D+03  .659971594695D+00 -.789890044948D-08
     .147148986489D-09  .100000000000D+01  .168000000000D+04  .000000000000D+00
     .240000000000D+01  .000000000000D+00  .838190317154D-08  .380000000000D+02
     .180006000000D+06  .400000000000D+01
 2 12  3 20  4  0  0.0  .383477192372D-03  .147792889038D-11  .000000000000D+00
     .260000000000D+02  .325000000000D+02  .484341603343D-08  .794728776329D+00
     .181421637535D-05  .110538874287D-01  .113602727652D-04  .515366934776D+04
     .187200000000D+06  .000000000000D+00  .675298492321D-02  .292435288429D-06
     .939226623907D+00  .150343750000D+03 -.283527606543D+01 -.822177104119D-08
     .118933525487D-09  .100000000000D+01  .168000000000D+04  .000000000000D+00
     .240000000000D+01  .000000000000D+00 -.172294676304D-07  .260000000000D+02
     .180006000000D+06  .400000000000D+01
 3 12  3 20  4  0  0.0  .247657299042D-04  .511590769747D-11  .000000000000D+00
     .106000000000D+03 -.863750000000D+02  .558844706697D-08  .941243265257D+00
    -.442750751972D-05  .150864778552D-01  .610388815403D-05  .515370861244D+04
     .187200000000D+06 -.210478901863D-06 -.115588969661D+01  .558793544769D-08
     .930540699955D+00  .251968750000D+03  .117642416859D+01 -.891501420327D-08
    -.532165023952D-09  .100000000000D+01  .168000000000D+04  .000000000000D+00
     .240000000000D+01  .000000000000D+00 -.419095158577D-08  .106000000000D+03
     .180006000000D+06  .400000000000D+01
 4 12  3 20  4  0  0.0  .128141138703D-03  .114823706099D-10  .000000000000D+00
     .720000000000D+02  .333750000000D+02  .473555439771D-08 -.239143095094D+01
     .161863863468D-05  .100053458009D-01  .114869326353D-04  .515357920074D+04
     .187200000000D+06  .428408384323D-07  .237329668133D-01 -.633299350739D-07
     .938286494233D+00  .145406250000D+03  .841900100198D+00 -.797711799327D-08
     .298583865788D-09  .100000000000D+01  .168000000000D+04  .000000000000D+00
     .240000000000D+01  .000000000000D+00 -.605359673500D-08  .720000000000D+02
     .180006000000D+06  .400000000000D+01
 5 12  3 20  4  0  0.0 -.295706558973D-03 -.420641299570D-11  .000000000000D+00
     .200000000000D+01  .311250000000D+02  .513878547961D-08  .274450215368D+01
     .163353979588D-05  .269100256264D-02  .412203371525D-05  .515361778259D+04
     .187200000000D+06 -.745058059692D-08  .106961263704D+01 -.223517417908D-07
     .951383067918D+00  .296687500000D+03  .290344964982D+00 -.850071123160D-08
     .202151277555D-09  .100000000000D+01  .168000000000D+04  .000000000000D+00
     .240000000000D+01  .000000000000D+00 -.102445483208D-07  .200000000000D+01
     .180006000000D+06  .400000000000D+01
 6 12  3 20  4  0  0.0  .319308601320D-04 -.113686837722D-12  .000000000000D+00
     .430000000000D+02 -.973437500000D+02  .519771650576D-08  .286252311654D+01
    -.488944351673D-05  .714855012484D-02  .648573040962D-05  .515369988632D+04
     .187200000000D+06 -.167638063431D-07 -.107978295617D+01  .119209289551D-06
     .937517113431D+00  .241187500000D+03 -.591884370748D+00 -.842142221461D-08
    -.448590114150D-09  .100000000000D+01  .168000000000D+04  .000000000000D+00
     .240000000000D+01  .000000000000D+00 -.512227416039D-08  .430000000000D+02
     .180006000000D+06  .400000000000D+01
 7 12  3 20  4  0  0.0  .657755881548D-04  .306954461848D-11  .000000000000D+00
     .104000000000D+03  .506875000000D+02  .398052294762D-08 -.673085926742D+00
     .263378024101D-05  .515109591652D-02  .111125409603D-04  .515362283134D+04
     .187200000000D+06  .726431608200D-07 -.310341298600D+01 -.149011611938D-07
     .976028550364D+00  .172656250000D+03 -.301888306901D+01 -.779068165602D-08
     .260367988229D-09  .100000000000D+01  .168000000000D+04  .000000000000D+00
     .240000000000D+01  .000000000000D+00 -.107102096081D-07  .104000000000D+03
     .180006000000D+06  .400000000000D+01
 8 12  3 20  4  0  0.0  .860542058945D-06  .113686837722D-12  .000000000000D+00
     .620000000000D+02  .679687500000D+02  .356229124087D-08 -.130211853323D+01
     .329315662384D-05  .121210877551D-01  .105984508991D-04  .515369768906D+04
     .187200000000D+06  .651925802231D-07 -.302161843762D+01 -.167638063431D-06
     .998117766331D+00  .193562500000D+03 -.297750815134D+01 -.751674167389D-08
     .431446542909D-09  .100000000000D+01  .168000000000D+04  .000000000000D+00
     .240000000000D+01  .000000000000D+00 -.465661287308D-08  .620000000000D+02
     .180006000000D+06  .400000000000D+01
 9 12  3 20  4  0  0.0  .145906116813D-03  .250111042988D-11  .000000000000D+00
     .450000000000D+02  .665937500000D+02  .381730186309D-08 -.134750151874D+01
     .368990004063D-05  .172918816097D-01  .116620212793D-04  .515363591385D+04
     .187200000000D+06 -.143423676491D-06 -.312962901048D+01  .398606061935D-06
     .984802714609D+00  .172625000000D+03  .160564685805D+01 -.779532470656D-08
     .248938940735D-09  .100000000000D+01  .168000000000D+04  .000000000000D+00
     .240000000000D+01  .000000000000D+00 -.558793544769D-08  .450000000000D+02
     .180006000000D+06  .400000000000D+01
10 12  3 20  4  0  0.0 -.328216701746D-04 -.125055521494D-11  .000000000000D+00
     .260000000000D+02  .309687500000D+02  .511164149181D-08  .310533696465D+01
     .154040753841D-05  .112269399688D-01  .374205410480D-05  .515367817307D+04
     .187200000000D+06  .186264514923D-08  .109157563975D+01 -.130385160446D-06
     .946259542594D+00  .300281250000D+03  .748765167406D+00 -.837284876276D-08
     .213223167315D-09  .100000000000D+01  .168000000000D+04  .000000000000D+00
     .240000000000D+01  .000000000000D+00 -.232830643654D-08  .260000000000D+02
     .180006000000D+06  .400000000000D+01
11 12  3 20  4  0  0.0 -.243338290602D-03 -.375166564481D-11  .000000000000D+00
     .870000000000D+02 -.122187500000D+02  .603060834190D-08 -.530988650197D+00
    -.571832060814D-06  .127777046291D-01  .113304704428D-04  .515368384361D+04
     .187200000000D+06 -.484287738800D-07 -.245774446132D+00  .191852450371D-06
     .888527329724D+00  .122187500000D+03  .103377476775D+01 -.892822903943D-08
    -.460733477113D-10  .100000000000D+01  .168000000000D+04  .000000000000D+00
     .340000000000D+01  .000000000000D+00 -.116415321827D-07  .870000000000D+02
     .180006000000D+06  .400000000000D+01
12 12  3 20  4  0  0.0  .588223338127D-04  .216004991671D-11  .000000000000D+00
     .290000000000D+02  .283125000000D+02  .468769526132D-08 -.819144740095D+00
     .149384140968D-05  .393931288272D-02  .341422855854D-05  .515354072571D+04
     .187200000000D+06  .353902578354D-07 -.204771111116D+01 -.707805156708D-07
     .978689703680D+00  .325562500000D+03 -.367278077120D-01 -.834641909043D-08
     .222866426138D-09  .100000000000D+01  .168000000000D+04  .000000000000D+00
     .240000000000D+01  .000000000000D+00 -.121071934700D-07  .290000000000D+02
     .180006000000D+06  .400000000000D+01
13 12  3 20  4  0  0.0  .218457542360D-03 -.227373675443D-11  .000000000000D+00
     .910000000000D+02 -.555625000000D+02  .385301763651D-08  .168396113455D+01
    -.291690230370D-05  .487713015173D-02  .888854265213D-05  .515370136833D+04
     .187200000000D+06  .763684511185D-07  .220907011949D+01 -.167638063431D-07
     .986334730698D+00  .220906250000D+03  .194804437495D+01 -.773853662683D-08
    -.396445084958D-09  .100000000000D+01  .168000000000D+04  .000000000000D+00
     .240000000000D+01  .000000000000D+00 -.111758708954D-07  .910000000000D+02
     .180006000000D+06  .400000000000D+01
14 12  3 20  4  0  0.0  .197612680495D-03  .113686837722D-11  .000000000000D+00
     .540000000000D+02 -.633125000000D+02  .408481300600D-08  .174107305114D+01
    -.318884849548D-05  .615859450772D-02  .895932316780D-05  .515356908607D+04
     .187200000000D+06 -.132247805595D-06  .218284321529D+01 -.139698386192D-06
     .979187670754D+00  .214375000000D+03 -.205421232642D+01 -.792032991353D-08
    -.419303179946D-09  .100000000000D+01  .168000000000D+04  .000000000000D+00
     .240000000000D+01  .000000000000D+00 -.884756445885D-08  .540000000000D+02
     .180006000000D+06  .400000000000D+01
15 12  3 20  4  0  0.0 -.918814912438D-04  .341060513165D-12  .000000000000D+00
     .270000000000D+02 -.587500000000D+02  .490841874106D-08  .128859333771D+01
    -.299699604511D-05  .438791001216D-02  .808574259281D-05  .515378382683D+04
     .187200000000D+06  .391155481339D-07  .209727440849D+01  .521540641785D-07
     .946016218356D+00  .214656250000D+03  .594963984467D-01 -.830963184381D-08
    -.505021036153D-09  .100000000000D+01  .168000000000D+04  .000000000000D+00
     .240000000000D+01  .000000000000D+00 -.102445483208D-07  .270000000000D+02
     .180006000000D+06  .400000000000D+01
16 12  3 20  4  0  0.0 -.228088349104D-03 -.147792889038D-11  .000000000000D+00
     .620000000000D+02  .387187500000D+02  .457340478638D-08  .312162216432D+01
     .203773379326D-05  .654561736155D-02  .353343784809D-05  .515363014984D+04
     .187200000000D+06 -.109896063805D-06 -.202960147563D+01  .335276126862D-07
     .979543155459D+00  .322781250000D+03 -.662558714116D-01 -.815498254490D-08
     .216794744657D-09  .100000000000D+01  .168000000000D+04  .000000000000D+00
     .240000000000D+01  .000000000000D+00 -.977888703346D-08  .620000000000D+02
     .180006000000D+06  .400000000000D+01
